STARS (KUKAI)           
1 33498U 09002G   26189.08995900  .00001785  00000+0  16508-3 0  9997
2 33498  98.1555 137.2542 0010227  98.6827 261.5552 14.95901091941603
KKS-1 (KISEKI)          
1 33499U 09002H   26189.03583273  .00000977  00000+0  12655-3 0  9990
2 33499  98.1180 111.8085 0006869 214.3199 145.7571 14.83177129939283
UK-DMC 2                
1 35683U 09041C   26189.17258368  .00000232  00000+0  40753-4 0  9994
2 35683  97.8865 323.6293 0001372  99.7217 260.4148 14.76087103909668
OCEANSAT-2              
1 35931U 09051A   26189.21644013 -.00000181  00000+0 -97720-4 0  9993
2 35931  98.2318 173.9686 0016870 173.7586 186.3794 13.99657353882279
SWISSCUBE               
1 35932U 09051B   26189.17253486  .00000734  00000+0  15442-3 0  9991
2 35932  98.4017  97.4251 0007478 138.1087 222.0687 14.62521876892227
BEESAT-1                
1 35933U 09051C   26188.71376992  .00000676  00000+0  14545-3 0  9997
2 35933  98.3945  96.5507 0005671 149.9217 210.2310 14.61753962892188
ITUPSAT1                
1 35935U 09051E   26188.72265193  .00000618  00000+0  13755-3 0  9998
2 35935  98.4027  95.7297 0007547 164.8857 195.2569 14.60471459891734
DMSP 5D-3 F18 (USA 210) 
1 35951U 09057A   26189.21436316  .00000219  00000+0  13629-3 0  9991
2 35951  98.9050 169.9389 0010796 185.2801 174.8259 14.14908306862568
PROBA-2                 
1 36037U 09059B   26188.94187277  .00000140  00000+0  43180-4 0  9996
2 36037  98.2457  12.0075 0012511 211.9031 148.1410 14.54871393884541
YAOGAN-7                
1 36110U 09069A   26188.12767835  .00000396  00000+0  61972-4 0  9995
2 36110  98.0047  73.8694 0024056 338.2842  21.7346 14.78030223892579
XIWANG-1 (HOPE-1)       
1 36122U 09072B   26189.14363872  .00000401  00000+0  11668-2 0  9990
2 36122 100.4036 142.6417 0007328 180.7571 179.3531 13.16441599795760
COSMOS 2463             
1 36519U 10017A   26189.11860036  .00000033  00000+0  19359-4 0  9990
2 36519  82.9586 234.3272 0037543  72.8883 315.0642 13.71666901810803
CARTOSAT-2B             
1 36795U 10035A   26189.18222494  .00000813  00000+0  11812-3 0  9994
2 36795  97.9939 239.5970 0012417 119.5378 240.7072 14.78613485862951
TISAT 1                 
1 36799U 10035E   26188.82085016  .00014738  00000+0  47140-3 0  9999
2 36799  98.0709 137.2126 0004064 127.9338 232.2269 15.32536162870867
YAOGAN-10               
1 36834U 10038A   26189.23533745  .00001582  00000+0  18986-3 0  9994
2 36834  97.8972 212.4717 0001674  85.5872 342.6101 14.85415966860331
SHIJIAN-6 04B (SJ-6 04B)
1 37180U 10051B   26189.17862450  .00001040  00000+0  89981-4 0  9998
2 37180  97.8743 194.8120 0007043 235.9081 124.1474 14.99380276858829
FENGYUN 3B              
1 37214U 10059A   26189.24009359 -.00000259  00000+0 -11038-3 0  9993
2 37214  98.9608 235.3430 0022989 125.3525 314.2499 14.14845362810405
COSMO-SKYMED 4          
1 37216U 10060A   26189.16946072 -.00000286  00000+0 -29413-4 0  9997
2 37216  97.8898  12.4653 0001484  85.7189 274.4194 14.82161448847678
O/OREOS (USA 219)       
1 37224U 10062C   26189.02310743  .00001283  00000+0  12664-3 0  9998
2 37224  71.9709  33.1384 0013520  19.2544 340.9135 14.93833192119752
RESOURCESAT-2           
1 37387U 11015A   26189.13348108  .00000030  00000+0  33947-4 0  9992
2 37387  98.7634 256.4296 0011171 191.1706 168.9224 14.21604897789151
YOUTHSAT                
1 37388U 11015B   26188.93069443  .00000129  00000+0  71831-4 0  9995
2 37388  98.3696 162.0508 0013205 282.5702 137.3627 14.25638538790595
APRIZESAT 6             
1 37793U 11044F   26189.01421536  .00000579  00000+0  88858-4 0  9998
2 37793  98.2346  99.9378 0043635  21.0805  44.4550 14.76949102800222
JUGNU                   
1 37839U 11058B   26189.11840688  .00000386  00000+0  61884-4 0  9994
2 37839  19.9588 181.2607 0018359 307.9643 119.1069 14.13782065761991
SRMSAT                  
1 37841U 11058D   26188.51395409  .00000364  00000+0  53720-4 0  9992
2 37841  19.9725 296.4406 0011878  67.5382  21.1361 14.11579854760692
SUOMI NPP               
1 37849U 11061A   26189.13390328  .00000038  00000+0  38928-4 0  9999
2 37849  98.7955 129.8673 0000564 266.9547  93.1564 14.19521599761419
YAOGAN-12               
1 37875U 11066B   26189.17373631  .00002255  00000+0  87995-4 0  9996
2 37875  97.1133 226.7566 0010616 144.4841 215.7107 15.26846287815242
