OBJECT_NAME,OBJECT_ID,EPOCH,MEAN_MOTION,ECCENTRICITY,INCLINATION,RA_OF_ASC_NODE,ARG_OF_PERICENTER,MEAN_ANOMALY,EPHEMERIS_TYPE,CLASSIFICATION_TYPE,NORAD_CAT_ID,ELEMENT_SET_NO,REV_AT_EPOCH,BSTAR,MEAN_MOTION_DOT,MEAN_MOTION_DDOT
STARS (KUKAI),2009-002G,2026-07-08T02:09:32.457600,14.95901091,.0010227,98.1555,137.2542,98.6827,261.5552,0,U,33498,999,94160,.16508E-3,.1785E-4,0
KKS-1 (KISEKI),2009-002H,2026-07-08T00:51:35.947872,14.83177129,.0006869,98.1180,111.8085,214.3199,145.7571,0,U,33499,999,93928,.12655E-3,.977E-5,0
UK-DMC 2,2009-041C,2026-07-08T04:08:31.229952,14.76087103,.0001372,97.8865,323.6293,99.7217,260.4148,0,U,35683,999,90966,.40753E-4,.232E-5,0
OCEANSAT-2,2009-051A,2026-07-08T05:11:40.427232,13.99657353,.001687,98.2318,173.9686,173.7586,186.3794,0,U,35931,999,88227,-.9772E-4,-.181E-5,0
SWISSCUBE,2009-051B,2026-07-08T04:08:27.011904,14.62521876,.0007478,98.4017,97.4251,138.1087,222.0687,0,U,35932,999,89222,.15442E-3,.734E-5,0
BEESAT-1,2009-051C,2026-07-07T17:07:49.721088,14.61753962,.0005671,98.3945,96.5507,149.9217,210.2310,0,U,35933,999,89218,.14545E-3,.676E-5,0
ITUPSAT1,2009-051E,2026-07-07T17:20:37.126752,14.60471459,.0007547,98.4027,95.7297,164.8857,195.2569,0,U,35935,999,89173,.13755E-3,.618E-5,0
DMSP 5D-3 F18 (USA 210),2009-057A,2026-07-08T05:08:40.977024,14.14908306,.0010796,98.9050,169.9389,185.2801,174.8259,0,U,35951,999,86256,.13629E-3,.219E-5,0
PROBA-2,2009-059B,2026-07-07T22:36:17.807328,14.54871393,.0012511,98.2457,12.0075,211.9031,148.1410,0,U,36037,999,88454,.4318E-4,.14E-5,0
YAOGAN-7,2009-069A,2026-07-07T03:03:51.409440,14.78030223,.00240564,98.0047,73.8694,338.2842,21.7346,0,U,36110,999,89257,.61972214E-4,.396E-5,0
XIWANG-1 (HOPE-1),2009-072B,2026-07-08T03:26:50.385408,13.16441599,.0007328,100.4036,142.6417,180.7571,179.3531,0,U,36122,999,79576,.11668E-2,.401E-5,0
COSMOS 2463,2010-017A,2026-07-08T02:50:47.071104,13.71666901,.0037543,82.9586,234.3272,72.8883,315.0642,0,U,36519,999,81080,.19359E-4,.33E-6,0
CARTOSAT-2B,2010-035A,2026-07-08T04:22:24.234816,14.78613485,.0012417,97.9939,239.5970,119.5378,240.7072,0,U,36795,999,86295,.11812E-3,.813E-5,0
TISAT 1,2010-035E,2026-07-07T19:42:01.453824,15.32536162,.0004064,98.0709,137.2126,127.9338,232.2269,0,U,36799,999,87086,.4714E-3,.14738E-3,0
YAOGAN-10,2010-038A,2026-07-08T05:38:53.155680,14.85415966,.0001674,97.8972,212.4717,85.5872,342.6101,0,U,36834,999,86033,.18986E-3,.1582E-4,0
SHIJIAN-6 04B (SJ-6 04B),2010-051B,2026-07-08T04:17:13.156800,14.99380276,.0007043,97.8743,194.8120,235.9081,124.1474,0,U,37180,999,85882,.89981E-4,.104E-4,0
FENGYUN 3B,2010-059A,2026-07-08T05:45:44.086176,14.14845362,.0022989,98.9608,235.3430,125.3525,314.2499,0,U,37214,999,81040,-.11038E-3,-.259E-5,0
COSMO-SKYMED 4,2010-060A,2026-07-08T04:04:01.406208,14.82161448,.0001484,97.8898,12.4653,85.7189,274.4194,0,U,37216,999,84767,-.29413E-4,-.286E-5,0
O/OREOS (USA 219),2010-062C,2026-07-08T00:33:16.481952,14.93833192,.001352,71.9709,33.1384,19.2544,340.9135,0,U,37224,999,11975,.12664E-3,.1283E-4,0
RESOURCESAT-2,2011-015A,2026-07-08T03:12:12.765312,14.21604897,.0011171,98.7634,256.4296,191.1706,168.9224,0,U,37387,999,78915,.33947E-4,.3E-6,0
YOUTHSAT,2011-015B,2026-07-07T22:20:11.998752,14.25638538,.0013205,98.3696,162.0508,282.5702,137.3627,0,U,37388,999,79059,.71831E-4,.129E-5,0
APRIZESAT 6,2011-044F,2026-07-08T00:20:28.207104,14.76949102,.0043635,98.2346,99.9378,21.0805,44.4550,0,U,37793,999,80022,.88858E-4,.579E-5,0
JUGNU,2011-058B,2026-07-08T02:50:30.354432,14.13782065,.0018359,19.9588,181.2607,307.9643,119.1069,0,U,37839,999,76199,.61884E-4,.386E-5,0
SRMSAT,2011-058D,2026-07-07T12:20:05.633376,14.11579854,.00118785,19.9725,296.4406,67.5382,21.1361,0,U,37841,999,76069,.53719828E-4,.364E-5,0
SUOMI NPP,2011-061A,2026-07-08T03:12:49.243392,14.19521599,.0000564,98.7955,129.8673,266.9547,93.1564,0,U,37849,999,76141,.38928E-4,.38E-6,0
YAOGAN-12,2011-066B,2026-07-08T04:10:10.817184,15.26846287,.0010616,97.1133,226.7566,144.4841,215.7107,0,U,37875,999,81524,.87995E-4,.2255E-4,0
